start=new Date('2021-11-14T00:00:00.000Z').valueOf();
sats=[{"BSTAR":"-0.00001477500000","REV_AT_EPOCH":"2749","APOAPSIS":"548.340","INCLINATION":"53.0558","NORAD_CAT_ID":"48554","MEAN_MOTION_DDOT":"0.0000000000000","TLE_LINE2":"2 48554  53.0558  11.6635 0001575  65.3327 294.7825 15.06388305 27498","PERIOD":"95.593","ARG_OF_PERICENTER":"65.3327","ELEMENT_SET_NO":"999","OBJECT_TYPE":"PAYLOAD","MEAN_MOTION_DOT":"-0.00000501","GP_ID":"189680546","RA_OF_ASC_NODE":"11.6635","ECCENTRICITY":"0.00015750","FILE":"3214083","SITE":"AFETR","REF_FRAME":"TEME","EPOCH":"2021-11-13T13:17:22.127712","TLE_LINE1":"1 48554U 21041B   21317.55372833 -.00000501  00000-0 -14775-4 0  9990","CLASSIFICATION_TYPE":"U","MEAN_ANOMALY":"294.7825","PERIAPSIS":"546.159","LAUNCH_DATE":"2021-05-15","OBJECT_NAME":"STARLINK-2139","RCS_SIZE":"LARGE","SEMIMAJOR_AXIS":"6925.384","CENTER_NAME":"EARTH","DECAY_DATE":null,"TIME_SYSTEM":"UTC","OBJECT_ID":"2021-041B","COUNTRY_CODE":"US","MEAN_MOTION":"15.06388305","EPHEMERIS_TYPE":"0","MEAN_ELEMENT_THEORY":"SGP4"},{"PERIAPSIS":"546.346","TLE_LINE1":"1 48555U 21041C   21317.91403021  .00000112  00000-0  26446-4 0  9999","CLASSIFICATION_TYPE":"U","MEAN_ANOMALY":"292.6158","EPOCH":"2021-11-13T21:56:12.210144","OBJECT_ID":"2021-041C","EPHEMERIS_TYPE":"0","COUNTRY_CODE":"US","MEAN_MOTION":"15.06393476","MEAN_ELEMENT_THEORY":"SGP4","CENTER_NAME":"EARTH","DECAY_DATE":null,"TIME_SYSTEM":"UTC","OBJECT_NAME":"STARLINK-2145","SEMIMAJOR_AXIS":"6925.369","RCS_SIZE":"LARGE","LAUNCH_DATE":"2021-05-15","NORAD_CAT_ID":"48555","APOAPSIS":"548.121","INCLINATION":"53.0571","MEAN_MOTION_DDOT":"0.0000000000000","BSTAR":"0.00002644600000","REV_AT_EPOCH":"2740","FILE":"3214514","SITE":"AFETR","REF_FRAME":"TEME","ECCENTRICITY":"0.00012820","RA_OF_ASC_NODE":"20.0396","GP_ID":"189713956","PERIOD":"95.593","TLE_LINE2":"2 48555  53.0571  20.0396 0001282  67.4966 292.6158 15.06393476 27401","ELEMENT_SET_NO":"999","ARG_OF_PERICENTER":"67.4966","MEAN_MOTION_DOT":"0.00000112","OBJECT_TYPE":"PAYLOAD"},{"REV_AT_EPOCH":"2740","BSTAR":"0.00003306000000","MEAN_MOTION_DDOT":"0.0000000000000","INCLINATION":"53.0581","APOAPSIS":"548.208","NORAD_CAT_ID":"48556","RA_OF_ASC_NODE":"20.0786","ECCENTRICITY":"0.00014220","SITE":"AFETR","FILE":"3214514","REF_FRAME":"TEME","OBJECT_TYPE":"PAYLOAD","MEAN_MOTION_DOT":"0.00000211","TLE_LINE2":"2 48556  53.0581  20.0786 0001422  77.3854 282.7294 15.06396776 27405","PERIOD":"95.592","ARG_OF_PERICENTER":"77.3854","ELEMENT_SET_NO":"999","GP_ID":"189713370","PERIAPSIS":"546.239","EPOCH":"2021-11-13T21:40:16.393728","MEAN_ANOMALY":"282.7294","TLE_LINE1":"1 48556U 21041D   21317.90296752  .00000211  00000-0  33060-4 0  9990","CLASSIFICATION_TYPE":"U","TIME_SYSTEM":"UTC","CENTER_NAME":"EARTH","DECAY_DATE":null,"EPHEMERIS_TYPE":"0","COUNTRY_CODE":"US","MEAN_MOTION":"15.06396776","MEAN_ELEMENT_THEORY":"SGP4","OBJECT_ID":"2021-041D","LAUNCH_DATE":"2021-05-15","RCS_SIZE":"LARGE","SEMIMAJOR_AXIS":"6925.358","OBJECT_NAME":"STARLINK-2151"},{"MEAN_MOTION_DDOT":"0.0000000000000","INCLINATION":"53.0559","APOAPSIS":"548.266","NORAD_CAT_ID":"48557","REV_AT_EPOCH":"2753","BSTAR":"0.00005031000000","FILE":"3214514","SITE":"AFETR","REF_FRAME":"TEME","RA_OF_ASC_NODE":"10.3769","ECCENTRICITY":"0.00014980","GP_ID":"189713487","MEAN_MOTION_DOT":"0.00000468","OBJECT_TYPE":"PAYLOAD","TLE_LINE2":"2 48557  53.0559  10.3769 0001498  63.9967 296.1176 15.06395178 27530","PERIOD":"95.592","ELEMENT_SET_NO":"999","ARG_OF_PERICENTER":"63.9967","PERIAPSIS":"546.191","MEAN_ANOMALY":"296.1176","TLE_LINE1":"1 48557U 21041E   21317.84123276  .00000468  00000-0  50310-4 0  9995","CLASSIFICATION_TYPE":"U","EPOCH":"2021-11-13T20:11:22.510464","COUNTRY_CODE":"US","MEAN_MOTION":"15.06395178","EPHEMERIS_TYPE":"0","MEAN_ELEMENT_THEORY":"SGP4","OBJECT_ID":"2021-041E","TIME_SYSTEM":"UTC","CENTER_NAME":"EARTH","DECAY_DATE":null,"SEMIMAJOR_AXIS":"6925.363","RCS_SIZE":"LARGE","OBJECT_NAME":"STARLINK-2155","LAUNCH_DATE":"2021-05-15"},{"RA_OF_ASC_NODE":"11.2824","ECCENTRICITY":"0.00014170","FILE":"3214514","SITE":"AFETR","REF_FRAME":"TEME","PERIOD":"95.593","TLE_LINE2":"2 48558  53.0555  11.2824 0001417  70.2552 289.8590 15.06394162 26643","ARG_OF_PERICENTER":"70.2552","ELEMENT_SET_NO":"999","OBJECT_TYPE":"PAYLOAD","MEAN_MOTION_DOT":"0.00001059","GP_ID":"189713253","BSTAR":"0.00009000400000","REV_AT_EPOCH":"2664","INCLINATION":"53.0555","APOAPSIS":"548.213","NORAD_CAT_ID":"48558","MEAN_MOTION_DDOT":"0.0000000000000","CENTER_NAME":"EARTH","DECAY_DATE":null,"TIME_SYSTEM":"UTC","OBJECT_ID":"2021-041F","MEAN_MOTION":"15.06394162","COUNTRY_CODE":"US","EPHEMERIS_TYPE":"0","MEAN_ELEMENT_THEORY":"SGP4","LAUNCH_DATE":"2021-05-15","OBJECT_NAME":"STARLINK-2166","RCS_SIZE":"LARGE","SEMIMAJOR_AXIS":"6925.366","PERIAPSIS":"546.250","EPOCH":"2021-11-13T15:19:26.485536","TLE_LINE1":"1 48558U 21041F   21317.63850099  .00001059  00000-0  90004-4 0  9994","CLASSIFICATION_TYPE":"U","MEAN_ANOMALY":"289.8590"},{"ECCENTRICITY":"0.00014550","RA_OF_ASC_NODE":"10.2240","FILE":"3214514","SITE":"AFETR","REF_FRAME":"TEME","OBJECT_TYPE":"PAYLOAD","MEAN_MOTION_DOT":"0.00001778","TLE_LINE2":"2 48559  53.0533  10.2240 0001455  74.9714 285.1436 15.06397738 27533","PERIOD":"95.592","ELEMENT_SET_NO":"999","ARG_OF_PERICENTER":"74.9714","GP_ID":"189714073","REV_AT_EPOCH":"2753","BSTAR":"0.00013825000000","MEAN_MOTION_DDOT":"0.0000000000000","NORAD_CAT_ID":"48559","APOAPSIS":"548.228","INCLINATION":"53.0533","TIME_SYSTEM":"UTC","CENTER_NAME":"EARTH","DECAY_DATE":null,"EPHEMERIS_TYPE":"0","COUNTRY_CODE":"US","MEAN_MOTION":"15.06397738","MEAN_ELEMENT_THEORY":"SGP4","OBJECT_ID":"2021-041G","LAUNCH_DATE":"2021-05-15","SEMIMAJOR_AXIS":"6925.355","RCS_SIZE":"LARGE","OBJECT_NAME":"STARLINK-2167","PERIAPSIS":"546.213","EPOCH":"2021-11-13T20:57:46.283904","MEAN_ANOMALY":"285.1436","TLE_LINE1":"1 48559U 21041G   21317.87345236  .00001778  00000-0  13825-3 0  9996","CLASSIFICATION_TYPE":"U"},{"CENTER_NAME":"EARTH","DECAY_DATE":null,"TIME_SYSTEM":"UTC","OBJECT_ID":"2021-041H","COUNTRY_CODE":"US","MEAN_MOTION":"15.25659023","EPHEMERIS_TYPE":"0","MEAN_ELEMENT_THEORY":"SGP4","LAUNCH_DATE":"2021-05-15","OBJECT_NAME":"STARLINK-2173","SEMIMAJOR_AXIS":"6866.944","RCS_SIZE":"LARGE","PERIAPSIS":"488.134","EPOCH":"2021-11-13T20:55:38.030016","TLE_LINE1":"1 48560U 21041H   21317.87196794  .00340124  00000-0  12604-1 0  9994","CLASSIFICATION_TYPE":"U","MEAN_ANOMALY":"191.5119","ECCENTRICITY":"0.00009830","RA_OF_ASC_NODE":"9.5040","SITE":"AFETR","FILE":"3214514","REF_FRAME":"TEME","TLE_LINE2":"2 48560  53.0499   9.5040 0000983 168.5901 191.5119 15.25659023 28457","PERIOD":"94.385","ARG_OF_PERICENTER":"168.5901","ELEMENT_SET_NO":"999","MEAN_MOTION_DOT":"0.00340124","OBJECT_TYPE":"PAYLOAD","GP_ID":"189713721","BSTAR":"0.01260400000000","REV_AT_EPOCH":"2845","APOAPSIS":"489.484","NORAD_CAT_ID":"48560","INCLINATION":"53.0499","MEAN_MOTION_DDOT":"0.0000000000000"},{"MEAN_ANOMALY":"256.1415","CLASSIFICATION_TYPE":"U","TLE_LINE1":"1 48561U 21041J   21317.91667824  .00043126  00000-0  28987-2 0  9991","EPOCH":"2021-11-13T22:00:00.999936","PERIAPSIS":"545.844","RCS_SIZE":"LARGE","SEMIMAJOR_AXIS":"6925.438","OBJECT_NAME":"STARLINK-2186","LAUNCH_DATE":"2021-05-15","MEAN_ELEMENT_THEORY":"SGP4","EPHEMERIS_TYPE":"0","COUNTRY_CODE":"US","MEAN_MOTION":"15.06370892","OBJECT_ID":"2021-041J","TIME_SYSTEM":"UTC","DECAY_DATE":null,"CENTER_NAME":"EARTH","MEAN_MOTION_DDOT":"0.0000000000000","APOAPSIS":"548.761","NORAD_CAT_ID":"48561","INCLINATION":"53.0571","REV_AT_EPOCH":"361","BSTAR":"0.00289870000000","GP_ID":"189713839","OBJECT_TYPE":"PAYLOAD","MEAN_MOTION_DOT":"0.00043126","ARG_OF_PERICENTER":"43.4572","ELEMENT_SET_NO":"999","PERIOD":"95.594","TLE_LINE2":"2 48561  53.0571 340.0208 0002106  43.4572 256.1415 15.06370892  3613","REF_FRAME":"TEME","FILE":"3214514","SITE":"AFETR","RA_OF_ASC_NODE":"340.0208","ECCENTRICITY":"0.00021060"},{"ECCENTRICITY":"0.00013290","RA_OF_ASC_NODE":"10.1880","REF_FRAME":"TEME","FILE":"3214514","SITE":"AFETR","ELEMENT_SET_NO":"999","ARG_OF_PERICENTER":"58.5555","TLE_LINE2":"2 48562  53.0565  10.1880 0001329  58.5555 301.5563 15.06391164 27544","PERIOD":"95.593","MEAN_MOTION_DOT":"0.00000165","OBJECT_TYPE":"PAYLOAD","GP_ID":"189713605","BSTAR":"0.00002994900000","REV_AT_EPOCH":"2754","NORAD_CAT_ID":"48562","APOAPSIS":"548.161","INCLINATION":"53.0565","MEAN_MOTION_DDOT":"0.0000000000000","DECAY_DATE":null,"CENTER_NAME":"EARTH","TIME_SYSTEM":"UTC","OBJECT_ID":"2021-041K","MEAN_ELEMENT_THEORY":"SGP4","EPHEMERIS_TYPE":"0","COUNTRY_CODE":"US","MEAN_MOTION":"15.06391164","LAUNCH_DATE":"2021-05-15","OBJECT_NAME":"STARLINK-2187","RCS_SIZE":"LARGE","SEMIMAJOR_AXIS":"6925.376","PERIAPSIS":"546.320","EPOCH":"2021-11-13T21:09:45.835200","CLASSIFICATION_TYPE":"U","TLE_LINE1":"1 48562U 21041K   21317.88178050  .00000165  00000-0  29949-4 0  9993","MEAN_ANOMALY":"301.5563"},{"MEAN_MOTION_DDOT":"0.0000000000000","APOAPSIS":"548.390","NORAD_CAT_ID":"48563","INCLINATION":"53.0553","REV_AT_EPOCH":"2750","BSTAR":"0.00010991000000","GP_ID":"189713957","MEAN_MOTION_DOT":"0.00001356","OBJECT_TYPE":"PAYLOAD","PERIOD":"95.593","TLE_LINE2":"2 48563  53.0553  11.3029 0001663  81.1430 278.9747 15.06391914 27505","ARG_OF_PERICENTER":"81.1430","ELEMENT_SET_NO":"999","FILE":"3214514","SITE":"AFETR","REF_FRAME":"TEME","ECCENTRICITY":"0.00016630","RA_OF_ASC_NODE":"11.3029","MEAN_ANOMALY":"278.9747","TLE_LINE1":"1 48563U 21041L   21317.63482142  .00001356  00000-0  10991-3 0  9996","CLASSIFICATION_TYPE":"U","EPOCH":"2021-11-13T15:14:08.570688","PERIAPSIS":"546.087","RCS_SIZE":"LARGE","SEMIMAJOR_AXIS":"6925.373","OBJECT_NAME":"STARLINK-2188","LAUNCH_DATE":"2021-05-15","COUNTRY_CODE":"US","MEAN_MOTION":"15.06391914","EPHEMERIS_TYPE":"0","MEAN_ELEMENT_THEORY":"SGP4","OBJECT_ID":"2021-041L","TIME_SYSTEM":"UTC","CENTER_NAME":"EARTH","DECAY_DATE":null}];
